{
  "type": "FeatureCollection",
  "features": [
    {
      "type": "Feature",
      "properties": { "flooded": true, "source": "sentinel-2" },
      "geometry": {
        "type": "Polygon",
        "coordinates": [
          [
            [-122.238, 49.088],
            [-122.229, 49.101],
            [-122.214, 49.110],
            [-122.198, 49.116],
            [-122.182, 49.113],
            [-122.168, 49.104],
            [-122.161, 49.092],
            [-122.166, 49.079],
            [-122.181, 49.071],
            [-122.200, 49.068],
            [-122.219, 49.072],
            [-122.233, 49.079],
            [-122.238, 49.088]
          ]
        ]
      }
    },
    {
      "type": "Feature",
      "properties": { "flooded": true, "source": "sentinel-2" },
      "geometry": {
        "type": "Polygon",
        "coordinates": [
          [
            [-122.262, 49.083],
            [-122.254, 49.090],
            [-122.243, 49.089],
            [-122.239, 49.081],
            [-122.246, 49.074],
            [-122.257, 49.075],
            [-122.262, 49.083]
          ]
        ]
      }
    }
  ]
}
