{
  "type": "Feature",
  "properties": {},
  "geometry": {
    "type": "LineString",
    "coordinates": [
      [-122.285, 49.102],
      [-122.278, 49.1015],
      [-122.27, 49.0985],
      [-122.255, 49.098],
      [-122.24, 49.0978],
      [-122.225, 49.0978],
      [-122.205, 49.098],
      [-122.185, 49.0982],
      [-122.17, 49.0985],
      [-122.16, 49.099],
      [-122.155, 49.101],
      [-122.153, 49.106],
      [-122.152, 49.112],
      [-122.151, 49.117],
      [-122.15, 49.12]
    ]
  }
}
